{
"type": "FeatureCollection",
"name": "localities",
"crs": { "type": "name", "properties": { "name": "urn:ogc:def:crs:OGC:1.3:CRS84" } },
"features": [
{ "type": "Feature", "properties": { "locality": "albemarle" }, "geometry": { "type": "Polygon", "coordinates": [ [ [ -78.468477, 37.822604 ], [ -78.491345, 37.796956 ], [ -78.494996, 37.795672 ], [ -78.496659, 37.794018 ], [ -78.498269, 37.791231 ], [ -78.498783, 37.789272 ], [ -78.498612, 37.784663 ], [ -78.495388, 37.772443 ], [ -78.495431, 37.767642 ], [ -78.495788, 37.766 ], [ -78.496601, 37.764369 ], [ -78.49954, 37.761594 ], [ -78.501537, 37.76053 ], [ -78.505516, 37.758956 ], [ -78.51048, 37.757494 ], [ -78.512848, 37.757222 ], [ -78.515701, 37.757437 ], [ -78.520337, 37.758059 ], [ -78.525543, 37.758217 ], [ -78.530322, 37.759427 ], [ -78.536571, 37.762302 ], [ -78.541393, 37.762765 ], [ -78.545573, 37.763998 ], [ -78.552263, 37.763293 ], [ -78.557854, 37.762226 ], [ -78.560948, 37.760627 ], [ -78.56507, 37.759515 ], [ -78.570146, 37.757621 ], [ -78.573155, 37.757155 ], [ -78.580797, 37.754047 ], [ -78.585448, 37.754746 ], [ -78.589385, 37.754834 ], [ -78.59485, 37.756234 ], [ -78.607131, 37.756575 ], [ -78.612023, 37.756321 ], [ -78.61563, 37.75497 ], [ -78.62053, 37.750945 ], [ -78.622311, 37.749867 ], [ -78.626658, 37.748005 ], [ -78.627997, 37.747075 ], [ -78.632297, 37.742858 ], [ -78.639363, 37.739214 ], [ -78.64167, 37.73715 ], [ -78.643923, 37.733071 ], [ -78.645809, 37.732635 ], [ -78.648463, 37.732703 ], [ -78.652162, 37.732019 ], [ -78.653189, 37.731362 ], [ -78.6542, 37.72939 ], [ -78.657107, 37.729435 ], [ -78.657976, 37.727447 ], [ -78.658311, 37.723582 ], [ -78.658777, 37.722758 ], [ -78.661993, 37.722682 ], [ -78.667123, 37.724482 ], [ -78.668862, 37.724752 ], [ -78.671368, 37.726572 ], [ -78.674405, 37.729362 ], [ -78.677589, 37.730471 ], [ -78.67883, 37.732074 ], [ -78.680866, 37.732769 ], [ -78.683909, 37.734664 ], [ -78.685549, 37.736419 ], [ -78.686087, 37.737505 ], [ -78.686148, 37.739808 ], [ -78.685843, 37.741369 ], [ -78.684263, 37.744691 ], [ -78.684525, 37.747785 ], [ -78.683463, 37.751891 ], [ -78.684521, 37.754351 ], [ -78.684745, 37.756229 ], [ -78.683406, 37.759729 ], [ -78.681984, 37.760181 ], [ -78.677948, 37.759831 ], [ -78.67653, 37.759401 ], [ -78.674705, 37.757924 ], [ -78.671651, 37.757067 ], [ -78.668097, 37.757525 ], [ -78.667459, 37.758219 ], [ -78.667455, 37.759409 ], [ -78.669715, 37.761289 ], [ -78.67202, 37.762252 ], [ -78.675243, 37.764534 ], [ -78.677228, 37.766436 ], [ -78.678531, 37.768252 ], [ -78.68219, 37.771303 ], [ -78.682951, 37.773174 ], [ -78.683667, 37.773615 ], [ -78.685016, 37.773968 ], [ -78.687038, 37.773975 ], [ -78.6892, 37.772607 ], [ -78.690517, 37.771137 ], [ -78.69271, 37.770931 ], [ -78.693336, 37.771187 ], [ -78.693358, 37.771869 ], [ -78.692163, 37.774846 ], [ -78.690338, 37.776508 ], [ -78.689366, 37.778202 ], [ -78.687429, 37.779313 ], [ -78.684047, 37.779809 ], [ -78.682571, 37.780881 ], [ -78.682414, 37.781493 ], [ -78.68568, 37.784032 ], [ -78.687071, 37.784499 ], [ -78.688439, 37.787204 ], [ -78.688298, 37.788432 ], [ -78.689409, 37.788836 ], [ -78.691524, 37.796782 ], [ -78.693022, 37.799432 ], [ -78.71304, 37.833517 ], [ -78.721771, 37.846965 ], [ -78.730265, 37.861262 ], [ -78.73395, 37.868869 ], [ -78.758457, 37.911083 ], [ -78.78668, 37.958944 ], [ -78.80559, 37.989444 ], [ -78.820125, 38.014625 ], [ -78.822274, 38.018953 ], [ -78.838874, 38.04737 ], [ -78.837013, 38.048258 ], [ -78.830144, 38.053502 ], [ -78.829927, 38.054025 ], [ -78.826512, 38.054427 ], [ -78.825203, 38.05604 ], [ -78.822221, 38.057962 ], [ -78.822293, 38.058749 ], [ -78.821691, 38.059231 ], [ -78.81862, 38.059855 ], [ -78.817289, 38.05963 ], [ -78.816537, 38.05986 ], [ -78.816219, 38.060296 ], [ -78.814401, 38.060644 ], [ -78.811857, 38.061726 ], [ -78.810497, 38.061478 ], [ -78.808242, 38.062193 ], [ -78.808007, 38.06311 ], [ -78.806482, 38.063204 ], [ -78.805067, 38.064649 ], [ -78.803218, 38.065157 ], [ -78.801617, 38.066024 ], [ -78.798372, 38.066627 ], [ -78.796309, 38.067469 ], [ -78.794761, 38.068719 ], [ -78.792788, 38.069504 ], [ -78.79218, 38.070436 ], [ -78.792228, 38.071198 ], [ -78.79313, 38.072628 ], [ -78.792841, 38.076009 ], [ -78.794019, 38.076898 ], [ -78.793647, 38.077808 ], [ -78.791606, 38.078184 ], [ -78.78884, 38.079695 ], [ -78.78807, 38.080941 ], [ -78.786826, 38.081111 ], [ -78.78603, 38.08167 ], [ -78.78224, 38.080736 ], [ -78.781078, 38.080757 ], [ -78.780648, 38.082461 ], [ -78.7792, 38.08347 ], [ -78.778903, 38.086137 ], [ -78.779306, 38.089297 ], [ -78.779069, 38.089961 ], [ -78.777688, 38.091206 ], [ -78.777203, 38.093217 ], [ -78.777887, 38.094478 ], [ -78.779569, 38.095579 ], [ -78.781173, 38.097185 ], [ -78.780703, 38.098949 ], [ -78.783201, 38.09938 ], [ -78.783833, 38.100279 ], [ -78.783819, 38.100812 ], [ -78.78295, 38.101528 ], [ -78.78256, 38.102673 ], [ -78.781657, 38.102922 ], [ -78.780155, 38.104242 ], [ -78.779041, 38.106491 ], [ -78.779211, 38.106875 ], [ -78.780972, 38.107639 ], [ -78.781049, 38.108112 ], [ -78.779988, 38.109563 ], [ -78.780553, 38.111077 ], [ -78.780407, 38.112072 ], [ -78.780654, 38.112784 ], [ -78.782742, 38.113284 ], [ -78.783798, 38.114321 ], [ -78.78579, 38.114494 ], [ -78.785853, 38.116112 ], [ -78.786231, 38.116779 ], [ -78.787544, 38.117288 ], [ -78.786896, 38.118559 ], [ -78.785676, 38.118933 ], [ -78.785294, 38.119701 ], [ -78.785356, 38.120743 ], [ -78.787124, 38.12146 ], [ -78.787288, 38.125134 ], [ -78.788036, 38.126787 ], [ -78.78594, 38.129031 ], [ -78.783489, 38.129318 ], [ -78.782192, 38.129917 ], [ -78.779496, 38.132092 ], [ -78.779232, 38.134344 ], [ -78.77946, 38.137125 ], [ -78.779075, 38.139889 ], [ -78.777964, 38.140406 ], [ -78.776533, 38.140458 ], [ -78.775432, 38.141008 ], [ -78.77411, 38.145517 ], [ -78.774145, 38.14984 ], [ -78.773503, 38.151598 ], [ -78.771874, 38.15365 ], [ -78.771478, 38.155163 ], [ -78.771943, 38.155843 ], [ -78.771915, 38.156527 ], [ -78.770754, 38.160602 ], [ -78.77039, 38.161022 ], [ -78.770463, 38.162855 ], [ -78.771671, 38.165228 ], [ -78.771769, 38.166101 ], [ -78.769158, 38.168962 ], [ -78.76817, 38.17106 ], [ -78.768637, 38.171582 ], [ -78.768348, 38.173465 ], [ -78.767415, 38.174542 ], [ -78.767333, 38.175237 ], [ -78.766994, 38.175664 ], [ -78.76603, 38.175957 ], [ -78.765153, 38.176922 ], [ -78.764901, 38.177887 ], [ -78.763426, 38.178091 ], [ -78.761957, 38.180268 ], [ -78.76188, 38.182554 ], [ -78.76106, 38.183407 ], [ -78.760197, 38.183794 ], [ -78.758995, 38.18554 ], [ -78.756822, 38.187197 ], [ -78.756453, 38.188348 ], [ -78.756694, 38.189443 ], [ -78.756494, 38.190433 ], [ -78.754943, 38.192709 ], [ -78.753185, 38.193622 ], [ -78.752611, 38.194238 ], [ -78.752345, 38.195896 ], [ -78.75279, 38.197072 ], [ -78.7511, 38.198359 ], [ -78.750933, 38.198948 ], [ -78.751953, 38.200095 ], [ -78.75229, 38.201284 ], [ -78.751859, 38.202583 ], [ -78.746471, 38.211565 ], [ -78.745174, 38.214431 ], [ -78.742136, 38.21772 ], [ -78.740543, 38.218945 ], [ -78.738658, 38.219483 ], [ -78.73764, 38.219294 ], [ -78.736386, 38.220098 ], [ -78.73414, 38.222714 ], [ -78.730498, 38.225835 ], [ -78.72986, 38.227004 ], [ -78.728334, 38.228292 ], [ -78.726905, 38.228839 ], [ -78.726315, 38.229619 ], [ -78.726812, 38.230981 ], [ -78.726272, 38.231955 ], [ -78.724745, 38.232775 ], [ -78.722426, 38.233013 ], [ -78.721097, 38.234339 ], [ -78.715574, 38.235867 ], [ -78.711239, 38.238639 ], [ -78.710556, 38.239722 ], [ -78.7107, 38.241289 ], [ -78.710006, 38.242445 ], [ -78.706735, 38.24465 ], [ -78.706566, 38.246438 ], [ -78.704336, 38.246991 ], [ -78.702277, 38.246198 ], [ -78.697744, 38.245738 ], [ -78.695236, 38.246457 ], [ -78.689787, 38.248838 ], [ -78.689397, 38.249855 ], [ -78.688249, 38.250144 ], [ -78.687271, 38.251073 ], [ -78.686347, 38.251406 ], [ -78.685286, 38.252822 ], [ -78.682488, 38.254616 ], [ -78.681032, 38.254905 ], [ -78.678847, 38.254409 ], [ -78.676213, 38.253154 ], [ -78.675448, 38.251696 ], [ -78.673848, 38.249844 ], [ -78.671603, 38.247925 ], [ -78.669806, 38.247327 ], [ -78.669727, 38.248464 ], [ -78.668725, 38.250675 ], [ -78.665093, 38.251962 ], [ -78.662188, 38.253476 ], [ -78.660079, 38.255375 ], [ -78.658975, 38.258043 ], [ -78.656532, 38.259058 ], [ -78.655149, 38.260632 ], [ -78.657236, 38.260566 ], [ -78.658082, 38.260899 ], [ -78.659777, 38.262522 ], [ -78.662158, 38.263643 ], [ -78.6625, 38.264783 ], [ -78.664857, 38.265249 ], [ -78.666398, 38.266053 ], [ -78.66374, 38.267203 ], [ -78.661373, 38.268822 ], [ -78.660646, 38.270257 ], [ -78.660758, 38.270949 ], [ -78.662049, 38.271812 ], [ -78.663373, 38.274968 ], [ -78.663898, 38.276676 ], [ -78.663145, 38.277933 ], [ -78.617335, 38.262079 ], [ -78.593696, 38.253523 ], [ -78.522545, 38.231133 ], [ -78.442376, 38.207283 ], [ -78.438107, 38.205708 ], [ -78.416816, 38.199299 ], [ -78.396801, 38.192088 ], [ -78.389564, 38.190484 ], [ -78.368805, 38.18409 ], [ -78.34454, 38.177858 ], [ -78.299653, 38.162909 ], [ -78.26926, 38.152416 ], [ -78.209384, 38.131128 ], [ -78.23278, 38.094788 ], [ -78.253989, 38.062813 ], [ -78.274773, 38.042429 ], [ -78.28492, 38.029806 ], [ -78.306866, 38.006364 ], [ -78.468477, 37.822604 ] ], [ [ -78.514107, 38.044139 ], [ -78.516072, 38.043486 ], [ -78.517369, 38.041186 ], [ -78.516272, 38.040381 ], [ -78.516892, 38.039879 ], [ -78.515527, 38.036644 ], [ -78.51333, 38.037137 ], [ -78.508096, 38.035831 ], [ -78.506766, 38.039522 ], [ -78.506256, 38.039625 ], [ -78.505324, 38.041202 ], [ -78.505718, 38.041379 ], [ -78.505312, 38.042143 ], [ -78.504334, 38.042893 ], [ -78.501248, 38.040409 ], [ -78.503456, 38.036746 ], [ -78.501584, 38.036092 ], [ -78.500112, 38.034324 ], [ -78.497791, 38.033255 ], [ -78.501997, 38.032116 ], [ -78.509613, 38.032161 ], [ -78.511908, 38.030198 ], [ -78.514818, 38.028609 ], [ -78.518294, 38.028558 ], [ -78.51826, 38.029827 ], [ -78.520179, 38.029781 ], [ -78.519777, 38.028454 ], [ -78.520255, 38.028462 ], [ -78.520051, 38.026053 ], [ -78.523038, 38.026337 ], [ -78.523708, 38.022283 ], [ -78.523542, 38.02004 ], [ -78.522566, 38.018129 ], [ -78.521236, 38.018937 ], [ -78.520794, 38.018909 ], [ -78.519897, 38.017469 ], [ -78.519378, 38.017204 ], [ -78.518735, 38.013453 ], [ -78.518748, 38.011722 ], [ -78.519344, 38.011398 ], [ -78.519313, 38.010648 ], [ -78.516571, 38.010179 ], [ -78.516025, 38.009801 ], [ -78.515357, 38.010198 ], [ -78.51371, 38.009694 ], [ -78.511528, 38.009593 ], [ -78.51016, 38.009774 ], [ -78.509115, 38.011145 ], [ -78.508473, 38.011378 ], [ -78.50638, 38.010564 ], [ -78.503715, 38.01005 ], [ -78.501615, 38.011158 ], [ -78.500327, 38.012748 ], [ -78.498837, 38.012904 ], [ -78.493665, 38.015276 ], [ -78.491355, 38.017503 ], [ -78.489124, 38.017543 ], [ -78.487988, 38.016612 ], [ -78.483838, 38.015293 ], [ -78.483214, 38.014771 ], [ -78.482917, 38.011831 ], [ -78.481383, 38.011891 ], [ -78.480102, 38.013442 ], [ -78.479124, 38.013336 ], [ -78.47715, 38.014478 ], [ -78.475661, 38.014511 ], [ -78.474145, 38.012874 ], [ -78.469504, 38.011745 ], [ -78.468612, 38.014146 ], [ -78.469202, 38.014555 ], [ -78.467685, 38.017892 ], [ -78.463466, 38.020609 ], [ -78.462089, 38.022528 ], [ -78.45951, 38.022471 ], [ -78.456791, 38.021214 ], [ -78.454668, 38.021604 ], [ -78.452829, 38.025312 ], [ -78.452262, 38.027969 ], [ -78.454123, 38.029577 ], [ -78.45522, 38.029747 ], [ -78.457452, 38.028937 ], [ -78.458775, 38.027506 ], [ -78.46016, 38.027432 ], [ -78.460732, 38.027962 ], [ -78.460982, 38.028739 ], [ -78.460238, 38.032273 ], [ -78.459518, 38.033669 ], [ -78.457239, 38.035206 ], [ -78.454401, 38.038356 ], [ -78.454015, 38.041048 ], [ -78.455048, 38.044041 ], [ -78.454732, 38.045278 ], [ -78.453688, 38.045768 ], [ -78.449215, 38.045306 ], [ -78.447599, 38.045743 ], [ -78.4463, 38.049483 ], [ -78.447179, 38.051053 ], [ -78.44757, 38.05357 ], [ -78.447573, 38.056409 ], [ -78.448079, 38.057599 ], [ -78.449214, 38.058929 ], [ -78.454807, 38.055108 ], [ -78.454308, 38.054603 ], [ -78.454896, 38.054217 ], [ -78.456018, 38.055318 ], [ -78.45688, 38.055613 ], [ -78.458939, 38.051005 ], [ -78.457379, 38.050336 ], [ -78.457296, 38.049412 ], [ -78.46403, 38.049554 ], [ -78.464438, 38.048659 ], [ -78.465025, 38.048312 ], [ -78.46613, 38.0457 ], [ -78.468407, 38.046595 ], [ -78.470018, 38.046759 ], [ -78.47072, 38.04873 ], [ -78.472258, 38.04878 ], [ -78.472645, 38.049209 ], [ -78.472328, 38.050048 ], [ -78.471392, 38.050797 ], [ -78.472213, 38.052543 ], [ -78.468975, 38.056432 ], [ -78.464405, 38.064699 ], [ -78.466889, 38.06783 ], [ -78.46799, 38.067689 ], [ -78.468207, 38.068133 ], [ -78.472602, 38.067476 ], [ -78.471013, 38.069739 ], [ -78.471754, 38.070509 ], [ -78.472985, 38.070127 ], [ -78.474871, 38.068728 ], [ -78.474522, 38.067588 ], [ -78.476088, 38.066711 ], [ -78.476172, 38.066176 ], [ -78.476495, 38.066142 ], [ -78.477412, 38.064884 ], [ -78.478813, 38.065646 ], [ -78.480332, 38.065819 ], [ -78.482462, 38.067578 ], [ -78.485202, 38.068974 ], [ -78.491579, 38.061895 ], [ -78.492636, 38.063635 ], [ -78.495034, 38.065337 ], [ -78.502402, 38.060463 ], [ -78.500569, 38.05804 ], [ -78.501454, 38.057566 ], [ -78.507738, 38.056243 ], [ -78.510297, 38.051308 ], [ -78.504839, 38.047275 ], [ -78.505934, 38.045523 ], [ -78.506783, 38.044961 ], [ -78.511389, 38.043795 ], [ -78.514634, 38.044838 ], [ -78.514107, 38.044139 ] ] ] } },
{ "type": "Feature", "properties": { "locality": "cville" }, "geometry": { "type": "Polygon", "coordinates": [ [ [ -78.485449, 38.015937 ], [ -78.487988, 38.016612 ], [ -78.489124, 38.017543 ], [ -78.491355, 38.017503 ], [ -78.493665, 38.015276 ], [ -78.498837, 38.012904 ], [ -78.500327, 38.012748 ], [ -78.501615, 38.011158 ], [ -78.503856, 38.01002 ], [ -78.508473, 38.011378 ], [ -78.509115, 38.011145 ], [ -78.51016, 38.009774 ], [ -78.511528, 38.009593 ], [ -78.51371, 38.009694 ], [ -78.515357, 38.010198 ], [ -78.516025, 38.009801 ], [ -78.516571, 38.010179 ], [ -78.519245, 38.010614 ], [ -78.519344, 38.011398 ], [ -78.518748, 38.011722 ], [ -78.518735, 38.013453 ], [ -78.519378, 38.017204 ], [ -78.519897, 38.017469 ], [ -78.520794, 38.018909 ], [ -78.521236, 38.018937 ], [ -78.522566, 38.018129 ], [ -78.523542, 38.02004 ], [ -78.523708, 38.022283 ], [ -78.523038, 38.026337 ], [ -78.520051, 38.026053 ], [ -78.520255, 38.028462 ], [ -78.519777, 38.028454 ], [ -78.520179, 38.029781 ], [ -78.51826, 38.029827 ], [ -78.518294, 38.028558 ], [ -78.514818, 38.028609 ], [ -78.511908, 38.030198 ], [ -78.509613, 38.032161 ], [ -78.501997, 38.032116 ], [ -78.497791, 38.033255 ], [ -78.500112, 38.034324 ], [ -78.501584, 38.036092 ], [ -78.503456, 38.036746 ], [ -78.501248, 38.040409 ], [ -78.504334, 38.042893 ], [ -78.505312, 38.042143 ], [ -78.505718, 38.041379 ], [ -78.505324, 38.041202 ], [ -78.506256, 38.039625 ], [ -78.506766, 38.039522 ], [ -78.508096, 38.035831 ], [ -78.51333, 38.037137 ], [ -78.515527, 38.036644 ], [ -78.516892, 38.039879 ], [ -78.516272, 38.040381 ], [ -78.517369, 38.041186 ], [ -78.516072, 38.043486 ], [ -78.513962, 38.044182 ], [ -78.514634, 38.044838 ], [ -78.511389, 38.043795 ], [ -78.506783, 38.044961 ], [ -78.505934, 38.045523 ], [ -78.504839, 38.047275 ], [ -78.510297, 38.051308 ], [ -78.507738, 38.056243 ], [ -78.501454, 38.057566 ], [ -78.500569, 38.05804 ], [ -78.502402, 38.060463 ], [ -78.495034, 38.065337 ], [ -78.492636, 38.063635 ], [ -78.491579, 38.061895 ], [ -78.485202, 38.068974 ], [ -78.482462, 38.067578 ], [ -78.480332, 38.065819 ], [ -78.478813, 38.065646 ], [ -78.477412, 38.064884 ], [ -78.476495, 38.066142 ], [ -78.476172, 38.066176 ], [ -78.476088, 38.066711 ], [ -78.474522, 38.067588 ], [ -78.474871, 38.068728 ], [ -78.472985, 38.070127 ], [ -78.471754, 38.070509 ], [ -78.471013, 38.069739 ], [ -78.472602, 38.067476 ], [ -78.468207, 38.068133 ], [ -78.46799, 38.067689 ], [ -78.466889, 38.06783 ], [ -78.464405, 38.064699 ], [ -78.468975, 38.056432 ], [ -78.472213, 38.052543 ], [ -78.471392, 38.050797 ], [ -78.472328, 38.050048 ], [ -78.472532, 38.048945 ], [ -78.47072, 38.04873 ], [ -78.470018, 38.046759 ], [ -78.468407, 38.046595 ], [ -78.46613, 38.0457 ], [ -78.465025, 38.048312 ], [ -78.464438, 38.048659 ], [ -78.46403, 38.049554 ], [ -78.457296, 38.049412 ], [ -78.457379, 38.050336 ], [ -78.458939, 38.051005 ], [ -78.45688, 38.055613 ], [ -78.456018, 38.055318 ], [ -78.454896, 38.054217 ], [ -78.454308, 38.054603 ], [ -78.454807, 38.055108 ], [ -78.449214, 38.058929 ], [ -78.448079, 38.057599 ], [ -78.447547, 38.056313 ], [ -78.44757, 38.05357 ], [ -78.447147, 38.050916 ], [ -78.446309, 38.049544 ], [ -78.446495, 38.048409 ], [ -78.447599, 38.045743 ], [ -78.449215, 38.045306 ], [ -78.453688, 38.045768 ], [ -78.454732, 38.045278 ], [ -78.455048, 38.044041 ], [ -78.454015, 38.041048 ], [ -78.454401, 38.038356 ], [ -78.457239, 38.035206 ], [ -78.459518, 38.033669 ], [ -78.460238, 38.032273 ], [ -78.460982, 38.028739 ], [ -78.460732, 38.027962 ], [ -78.46016, 38.027432 ], [ -78.458775, 38.027506 ], [ -78.457452, 38.028937 ], [ -78.45522, 38.029747 ], [ -78.454123, 38.029577 ], [ -78.452262, 38.027969 ], [ -78.452829, 38.025312 ], [ -78.454668, 38.021604 ], [ -78.456791, 38.021214 ], [ -78.45951, 38.022471 ], [ -78.462089, 38.022528 ], [ -78.463466, 38.020609 ], [ -78.467685, 38.017892 ], [ -78.469202, 38.014555 ], [ -78.468612, 38.014146 ], [ -78.469504, 38.011745 ], [ -78.474145, 38.012874 ], [ -78.475661, 38.014511 ], [ -78.47715, 38.014478 ], [ -78.479124, 38.013336 ], [ -78.480102, 38.013442 ], [ -78.481383, 38.011891 ], [ -78.482917, 38.011831 ], [ -78.483278, 38.014899 ], [ -78.485449, 38.015937 ] ] ] } }
]
}
