{
"type": "FeatureCollection",
"name": "zori",
"crs": { "type": "name", "properties": { "name": "urn:ogc:def:crs:EPSG::4269" } },
"features": [
{ "type": "Feature", "properties": { "zip": "22901", "zori": 1885.0, "zori_yoy": 2.0 }, "geometry": { "type": "Polygon", "coordinates": [ [ [ -78.675693, 38.068167 ], [ -78.674323, 38.070572 ], [ -78.673379, 38.070389 ], [ -78.672855, 38.073591 ], [ -78.670268, 38.07694 ], [ -78.67145, 38.076985 ], [ -78.670936, 38.078396 ], [ -78.667338, 38.077001 ], [ -78.662551, 38.078658 ], [ -78.663036, 38.081393 ], [ -78.665231, 38.083315 ], [ -78.664612, 38.084408 ], [ -78.665501, 38.085545 ], [ -78.666236, 38.090366 ], [ -78.66545, 38.093029 ], [ -78.669214, 38.099889 ], [ -78.667774, 38.104051 ], [ -78.669094, 38.10521 ], [ -78.669024, 38.107148 ], [ -78.670135, 38.109098 ], [ -78.670829, 38.112417 ], [ -78.670194, 38.113396 ], [ -78.665483, 38.114023 ], [ -78.661473, 38.117963 ], [ -78.656307, 38.117505 ], [ -78.653538, 38.118681 ], [ -78.649254, 38.118853 ], [ -78.642847, 38.116782 ], [ -78.640323, 38.116937 ], [ -78.629259, 38.114152 ], [ -78.626648, 38.112727 ], [ -78.620699, 38.114577 ], [ -78.61995, 38.115437 ], [ -78.616316, 38.113766 ], [ -78.613292, 38.116001 ], [ -78.616123, 38.119229 ], [ -78.614553, 38.12009 ], [ -78.613809, 38.121988 ], [ -78.612463, 38.122355 ], [ -78.609667, 38.121808 ], [ -78.599849, 38.114985 ], [ -78.595749, 38.115997 ], [ -78.595056, 38.121301 ], [ -78.593624, 38.12257 ], [ -78.590955, 38.121296 ], [ -78.587389, 38.122791 ], [ -78.586652, 38.120798 ], [ -78.578894, 38.118306 ], [ -78.578199, 38.119602 ], [ -78.579979, 38.121309 ], [ -78.580049, 38.122446 ], [ -78.575607, 38.12467 ], [ -78.575711, 38.126727 ], [ -78.571916, 38.128051 ], [ -78.571089, 38.13101 ], [ -78.567912, 38.130571 ], [ -78.567925, 38.128715 ], [ -78.566563, 38.128523 ], [ -78.564894, 38.129599 ], [ -78.56511, 38.132828 ], [ -78.564304, 38.134239 ], [ -78.561752, 38.134788 ], [ -78.558742, 38.137386 ], [ -78.558352, 38.139285 ], [ -78.555311, 38.141121 ], [ -78.556129, 38.142107 ], [ -78.555969, 38.145153 ], [ -78.55882, 38.144839 ], [ -78.559402, 38.14163 ], [ -78.56422, 38.139994 ], [ -78.56559, 38.140839 ], [ -78.56721, 38.144013 ], [ -78.567843, 38.148576 ], [ -78.566077, 38.151135 ], [ -78.564492, 38.15197 ], [ -78.564858, 38.153047 ], [ -78.562647, 38.153714 ], [ -78.562677, 38.154857 ], [ -78.557774, 38.155022 ], [ -78.552858, 38.153111 ], [ -78.548429, 38.150299 ], [ -78.545209, 38.151935 ], [ -78.54306, 38.151216 ], [ -78.543262, 38.149739 ], [ -78.538541, 38.148985 ], [ -78.538048, 38.146514 ], [ -78.54163, 38.145488 ], [ -78.537027, 38.144137 ], [ -78.539628, 38.142089 ], [ -78.538147, 38.137643 ], [ -78.535249, 38.138786 ], [ -78.532746, 38.138281 ], [ -78.533258, 38.133999 ], [ -78.532027, 38.129074 ], [ -78.530102, 38.128085 ], [ -78.527168, 38.128485 ], [ -78.52598, 38.127403 ], [ -78.526115, 38.12374 ], [ -78.523448, 38.121411 ], [ -78.518991, 38.122535 ], [ -78.516966, 38.124036 ], [ -78.513488, 38.121345 ], [ -78.517116, 38.118377 ], [ -78.516761, 38.116338 ], [ -78.518476, 38.112726 ], [ -78.515128, 38.112284 ], [ -78.511776, 38.114399 ], [ -78.511031, 38.11614 ], [ -78.503696, 38.118387 ], [ -78.502307, 38.117508 ], [ -78.501977, 38.113961 ], [ -78.500582, 38.111835 ], [ -78.498226, 38.110817 ], [ -78.497231, 38.108671 ], [ -78.496001, 38.108644 ], [ -78.495013, 38.107404 ], [ -78.491997, 38.107158 ], [ -78.489619, 38.105731 ], [ -78.486691, 38.101828 ], [ -78.486175, 38.097672 ], [ -78.488908, 38.095044 ], [ -78.487732, 38.091219 ], [ -78.484581, 38.09129 ], [ -78.482343, 38.093279 ], [ -78.479692, 38.093765 ], [ -78.47512, 38.096964 ], [ -78.472692, 38.099874 ], [ -78.47105, 38.103844 ], [ -78.469091, 38.104757 ], [ -78.467619, 38.104637 ], [ -78.453935, 38.097466 ], [ -78.452062, 38.097267 ], [ -78.449122, 38.099165 ], [ -78.447302, 38.098938 ], [ -78.445378, 38.097207 ], [ -78.444827, 38.094441 ], [ -78.443507, 38.092725 ], [ -78.443616, 38.088873 ], [ -78.441836, 38.086638 ], [ -78.444962, 38.083968 ], [ -78.446798, 38.08024 ], [ -78.44683, 38.078357 ], [ -78.43976, 38.073884 ], [ -78.439508, 38.072304 ], [ -78.44276, 38.07018 ], [ -78.443317, 38.067283 ], [ -78.447738, 38.065455 ], [ -78.451366, 38.06206 ], [ -78.451571, 38.060819 ], [ -78.447652, 38.056589 ], [ -78.4463, 38.049421 ], [ -78.446686, 38.047904 ], [ -78.447421, 38.045925 ], [ -78.449215, 38.045306 ], [ -78.454643, 38.045367 ], [ -78.454092, 38.039243 ], [ -78.455013, 38.037399 ], [ -78.458535, 38.034559 ], [ -78.465847, 38.038348 ], [ -78.471936, 38.040493 ], [ -78.478427, 38.045266 ], [ -78.482112, 38.053789 ], [ -78.485197, 38.056164 ], [ -78.4996, 38.057738 ], [ -78.518166, 38.054929 ], [ -78.52256, 38.052388 ], [ -78.524186, 38.049554 ], [ -78.526401, 38.050115 ], [ -78.529846, 38.052988 ], [ -78.535509, 38.054698 ], [ -78.544215, 38.051421 ], [ -78.550937, 38.052846 ], [ -78.560702, 38.051742 ], [ -78.564276, 38.052685 ], [ -78.566765, 38.054713 ], [ -78.565876, 38.05567 ], [ -78.568646, 38.061068 ], [ -78.567956, 38.065131 ], [ -78.571544, 38.062144 ], [ -78.5751, 38.060397 ], [ -78.578732, 38.060298 ], [ -78.581249, 38.057246 ], [ -78.585812, 38.058833 ], [ -78.589806, 38.058637 ], [ -78.59673, 38.056665 ], [ -78.597825, 38.057251 ], [ -78.5976, 38.058494 ], [ -78.599785, 38.05927 ], [ -78.599412, 38.062954 ], [ -78.602356, 38.064465 ], [ -78.600975, 38.069217 ], [ -78.604859, 38.07072 ], [ -78.604909, 38.072171 ], [ -78.608427, 38.074126 ], [ -78.611371, 38.070113 ], [ -78.612924, 38.06986 ], [ -78.612608, 38.067286 ], [ -78.613855, 38.066294 ], [ -78.612855, 38.06209 ], [ -78.609306, 38.06005 ], [ -78.619686, 38.061629 ], [ -78.626311, 38.06027 ], [ -78.645704, 38.061921 ], [ -78.657286, 38.061339 ], [ -78.664866, 38.06264 ], [ -78.67037, 38.064943 ], [ -78.675693, 38.068167 ] ] ] } },
{ "type": "Feature", "properties": { "zip": "22903", "zori": 2076.0, "zori_yoy": 2.6 }, "geometry": { "type": "Polygon", "coordinates": [ [ [ -78.740052, 38.015285 ], [ -78.73906, 38.015533 ], [ -78.737135, 38.013287 ], [ -78.73429, 38.013409 ], [ -78.730682, 38.016025 ], [ -78.726358, 38.016861 ], [ -78.724477, 38.017998 ], [ -78.720104, 38.018214 ], [ -78.719207, 38.020131 ], [ -78.719612, 38.02318 ], [ -78.722021, 38.027261 ], [ -78.711609, 38.028479 ], [ -78.708697, 38.038471 ], [ -78.711436, 38.039188 ], [ -78.708872, 38.04027 ], [ -78.706226, 38.039309 ], [ -78.704914, 38.039924 ], [ -78.704666, 38.044785 ], [ -78.698286, 38.04871 ], [ -78.699068, 38.05398 ], [ -78.695743, 38.054708 ], [ -78.693298, 38.056735 ], [ -78.689075, 38.057432 ], [ -78.685353, 38.056235 ], [ -78.681477, 38.057349 ], [ -78.679477, 38.05697 ], [ -78.672496, 38.060583 ], [ -78.667067, 38.05949 ], [ -78.665576, 38.062854 ], [ -78.657286, 38.061339 ], [ -78.645704, 38.061921 ], [ -78.626311, 38.06027 ], [ -78.619686, 38.061629 ], [ -78.609306, 38.06005 ], [ -78.612855, 38.06209 ], [ -78.613855, 38.066294 ], [ -78.612608, 38.067286 ], [ -78.612924, 38.06986 ], [ -78.611371, 38.070113 ], [ -78.608427, 38.074126 ], [ -78.604909, 38.072171 ], [ -78.604859, 38.07072 ], [ -78.600975, 38.069217 ], [ -78.602356, 38.064465 ], [ -78.599412, 38.062954 ], [ -78.599785, 38.05927 ], [ -78.5976, 38.058494 ], [ -78.597825, 38.057251 ], [ -78.59673, 38.056665 ], [ -78.589806, 38.058637 ], [ -78.585812, 38.058833 ], [ -78.581249, 38.057246 ], [ -78.578732, 38.060298 ], [ -78.5751, 38.060397 ], [ -78.571544, 38.062144 ], [ -78.567956, 38.065131 ], [ -78.568646, 38.061068 ], [ -78.565876, 38.05567 ], [ -78.566765, 38.054713 ], [ -78.564276, 38.052685 ], [ -78.560702, 38.051742 ], [ -78.550937, 38.052846 ], [ -78.544215, 38.051421 ], [ -78.535509, 38.054698 ], [ -78.529846, 38.052988 ], [ -78.526401, 38.050115 ], [ -78.524186, 38.049554 ], [ -78.52256, 38.052388 ], [ -78.518166, 38.054929 ], [ -78.4996, 38.057738 ], [ -78.48906, 38.056767 ], [ -78.483513, 38.055269 ], [ -78.482112, 38.053789 ], [ -78.478677, 38.045564 ], [ -78.474844, 38.04283 ], [ -78.48504, 38.034428 ], [ -78.483897, 38.033564 ], [ -78.486049, 38.02869 ], [ -78.489909, 38.026571 ], [ -78.489123, 38.026025 ], [ -78.494559, 38.02054 ], [ -78.49521, 38.02084 ], [ -78.497279, 38.018456 ], [ -78.496802, 38.017727 ], [ -78.50005, 38.014345 ], [ -78.503329, 38.012675 ], [ -78.504158, 38.011083 ], [ -78.506142, 38.010863 ], [ -78.505599, 38.010378 ], [ -78.508473, 38.011378 ], [ -78.51016, 38.009774 ], [ -78.51861, 38.010678 ], [ -78.519782, 38.00901 ], [ -78.516477, 38.00813 ], [ -78.517625, 38.006672 ], [ -78.520011, 38.0053 ], [ -78.520924, 38.006397 ], [ -78.522473, 38.005442 ], [ -78.525938, 38.002312 ], [ -78.529161, 37.997882 ], [ -78.528531, 37.995796 ], [ -78.529891, 37.99428 ], [ -78.528462, 37.993344 ], [ -78.525957, 37.994573 ], [ -78.522911, 37.994187 ], [ -78.5249, 37.986517 ], [ -78.524277, 37.983919 ], [ -78.525618, 37.980955 ], [ -78.529248, 37.977749 ], [ -78.531169, 37.978864 ], [ -78.533351, 37.975065 ], [ -78.537748, 37.973521 ], [ -78.533566, 37.970387 ], [ -78.53623, 37.969146 ], [ -78.537951, 37.966407 ], [ -78.5385, 37.963689 ], [ -78.540977, 37.960477 ], [ -78.541347, 37.955776 ], [ -78.546154, 37.95491 ], [ -78.546375, 37.951427 ], [ -78.5441, 37.950779 ], [ -78.541507, 37.948177 ], [ -78.543498, 37.948223 ], [ -78.547413, 37.945986 ], [ -78.549958, 37.942921 ], [ -78.552486, 37.938965 ], [ -78.5524, 37.936989 ], [ -78.555039, 37.933688 ], [ -78.551242, 37.932333 ], [ -78.552413, 37.930513 ], [ -78.556552, 37.928432 ], [ -78.556919, 37.927361 ], [ -78.554465, 37.927559 ], [ -78.552857, 37.923731 ], [ -78.551166, 37.9245 ], [ -78.548608, 37.92249 ], [ -78.548796, 37.920947 ], [ -78.55116, 37.917306 ], [ -78.551957, 37.917707 ], [ -78.553503, 37.915588 ], [ -78.553316, 37.91371 ], [ -78.557933, 37.910426 ], [ -78.559333, 37.912354 ], [ -78.561724, 37.912958 ], [ -78.561294, 37.914902 ], [ -78.564746, 37.916538 ], [ -78.568261, 37.921288 ], [ -78.569079, 37.920382 ], [ -78.571394, 37.9222 ], [ -78.576163, 37.919465 ], [ -78.577536, 37.921057 ], [ -78.578541, 37.921156 ], [ -78.579379, 37.919135 ], [ -78.582949, 37.920567 ], [ -78.58446, 37.919118 ], [ -78.585424, 37.919205 ], [ -78.588391, 37.920764 ], [ -78.589903, 37.922373 ], [ -78.589807, 37.926673 ], [ -78.591451, 37.929594 ], [ -78.595078, 37.930603 ], [ -78.596554, 37.930043 ], [ -78.599095, 37.933863 ], [ -78.595401, 37.937149 ], [ -78.588023, 37.939599 ], [ -78.583806, 37.944044 ], [ -78.585731, 37.944741 ], [ -78.584745, 37.945443 ], [ -78.584871, 37.947208 ], [ -78.583109, 37.946926 ], [ -78.583719, 37.948952 ], [ -78.583213, 37.950907 ], [ -78.580516, 37.952055 ], [ -78.577965, 37.950186 ], [ -78.566398, 37.963307 ], [ -78.567023, 37.968536 ], [ -78.568179, 37.969711 ], [ -78.570038, 37.969526 ], [ -78.569863, 37.971188 ], [ -78.570748, 37.971864 ], [ -78.57117, 37.971441 ], [ -78.591086, 37.982958 ], [ -78.595, 37.978837 ], [ -78.597667, 37.973241 ], [ -78.600798, 37.974301 ], [ -78.605635, 37.969374 ], [ -78.607764, 37.97057 ], [ -78.610162, 37.967351 ], [ -78.614513, 37.969271 ], [ -78.616906, 37.967745 ], [ -78.619129, 37.96949 ], [ -78.620717, 37.968831 ], [ -78.625209, 37.970616 ], [ -78.627375, 37.975971 ], [ -78.630544, 37.97801 ], [ -78.630158, 37.980668 ], [ -78.633956, 37.986537 ], [ -78.631964, 37.990197 ], [ -78.635297, 37.99124 ], [ -78.639948, 37.989112 ], [ -78.650223, 37.988794 ], [ -78.652789, 37.986381 ], [ -78.668052, 37.999085 ], [ -78.675302, 38.003257 ], [ -78.682103, 37.99326 ], [ -78.696576, 37.984814 ], [ -78.697269, 37.986697 ], [ -78.699223, 37.987609 ], [ -78.700643, 37.985325 ], [ -78.703783, 37.986463 ], [ -78.70636, 37.985423 ], [ -78.709046, 37.986515 ], [ -78.713945, 37.991935 ], [ -78.716837, 37.991127 ], [ -78.71701, 37.992564 ], [ -78.715793, 37.992667 ], [ -78.715851, 37.994201 ], [ -78.718796, 37.99503 ], [ -78.720027, 37.996214 ], [ -78.721458, 37.994926 ], [ -78.726712, 38.000836 ], [ -78.727563, 38.001255 ], [ -78.728216, 38.000584 ], [ -78.732485, 38.002284 ], [ -78.735431, 38.004904 ], [ -78.736614, 38.008124 ], [ -78.736295, 38.00974 ], [ -78.741948, 38.011907 ], [ -78.740052, 38.015285 ] ], [ [ -78.520784, 38.030412 ], [ -78.519777, 38.028454 ], [ -78.516501, 38.028634 ], [ -78.514613, 38.032548 ], [ -78.510616, 38.031178 ], [ -78.506926, 38.036323 ], [ -78.504845, 38.037304 ], [ -78.505844, 38.039018 ], [ -78.504836, 38.039906 ], [ -78.501892, 38.039419 ], [ -78.501248, 38.040409 ], [ -78.504258, 38.042865 ], [ -78.50666, 38.039813 ], [ -78.508174, 38.040664 ], [ -78.50945, 38.039113 ], [ -78.507123, 38.038538 ], [ -78.508096, 38.035831 ], [ -78.514545, 38.036765 ], [ -78.514135, 38.035254 ], [ -78.516874, 38.035029 ], [ -78.518898, 38.030713 ], [ -78.520784, 38.030412 ] ], [ [ -78.49884, 38.030139 ], [ -78.49565, 38.030842 ], [ -78.495351, 38.031453 ], [ -78.49655, 38.031673 ], [ -78.496777, 38.03082 ], [ -78.49884, 38.030139 ] ] ] } },
{ "type": "Feature", "properties": { "zip": "22932", "zori": 2550.0, "zori_yoy": null }, "geometry": { "type": "Polygon", "coordinates": [ [ [ -78.793927, 38.077511 ], [ -78.78603, 38.08167 ], [ -78.781078, 38.080757 ], [ -78.77891, 38.084369 ], [ -78.779247, 38.088921 ], [ -78.777203, 38.093217 ], [ -78.781173, 38.097185 ], [ -78.780703, 38.098949 ], [ -78.782744, 38.099231 ], [ -78.783819, 38.100812 ], [ -78.780155, 38.104242 ], [ -78.779211, 38.106875 ], [ -78.780972, 38.107639 ], [ -78.779988, 38.109563 ], [ -78.780654, 38.112784 ], [ -78.78579, 38.114494 ], [ -78.785853, 38.116112 ], [ -78.787544, 38.117288 ], [ -78.786896, 38.118559 ], [ -78.785311, 38.119242 ], [ -78.785356, 38.120743 ], [ -78.787187, 38.121921 ], [ -78.787288, 38.125134 ], [ -78.788073, 38.126404 ], [ -78.78594, 38.129031 ], [ -78.782192, 38.129917 ], [ -78.779496, 38.132092 ], [ -78.779075, 38.139889 ], [ -78.775432, 38.141008 ], [ -78.77411, 38.145517 ], [ -78.774145, 38.14984 ], [ -78.772112, 38.153362 ], [ -78.77149, 38.158431 ], [ -78.77039, 38.161022 ], [ -78.771769, 38.166101 ], [ -78.76817, 38.17106 ], [ -78.768348, 38.173465 ], [ -78.766994, 38.175664 ], [ -78.76603, 38.175957 ], [ -78.764901, 38.177887 ], [ -78.763426, 38.178091 ], [ -78.761957, 38.180268 ], [ -78.76188, 38.182554 ], [ -78.756822, 38.187197 ], [ -78.756494, 38.190433 ], [ -78.754943, 38.192709 ], [ -78.752611, 38.194238 ], [ -78.75279, 38.197072 ], [ -78.750933, 38.198948 ], [ -78.75229, 38.201284 ], [ -78.745174, 38.214431 ], [ -78.740543, 38.218945 ], [ -78.73764, 38.219294 ], [ -78.730498, 38.225835 ], [ -78.726443, 38.229972 ], [ -78.726272, 38.231955 ], [ -78.715574, 38.235867 ], [ -78.711239, 38.238639 ], [ -78.710006, 38.242445 ], [ -78.706735, 38.24465 ], [ -78.706566, 38.246438 ], [ -78.704336, 38.246991 ], [ -78.697744, 38.245738 ], [ -78.692865, 38.247286 ], [ -78.689787, 38.248838 ], [ -78.689397, 38.249855 ], [ -78.686347, 38.251406 ], [ -78.685286, 38.252822 ], [ -78.681032, 38.254905 ], [ -78.675913, 38.252875 ], [ -78.674483, 38.250428 ], [ -78.669806, 38.247327 ], [ -78.668725, 38.250675 ], [ -78.662188, 38.253476 ], [ -78.660079, 38.255375 ], [ -78.658975, 38.258043 ], [ -78.655347, 38.26026 ], [ -78.657236, 38.260566 ], [ -78.662158, 38.263643 ], [ -78.6625, 38.264783 ], [ -78.666398, 38.266053 ], [ -78.661186, 38.269011 ], [ -78.660758, 38.270949 ], [ -78.662049, 38.271812 ], [ -78.663898, 38.276676 ], [ -78.663145, 38.277933 ], [ -78.62477, 38.264648 ], [ -78.630653, 38.258979 ], [ -78.63195, 38.25598 ], [ -78.634578, 38.254323 ], [ -78.636541, 38.250127 ], [ -78.634882, 38.247932 ], [ -78.633416, 38.248034 ], [ -78.639484, 38.240157 ], [ -78.633581, 38.238448 ], [ -78.633683, 38.237159 ], [ -78.63196, 38.236588 ], [ -78.617498, 38.2344 ], [ -78.61726, 38.232291 ], [ -78.614598, 38.228899 ], [ -78.6109, 38.226105 ], [ -78.603341, 38.228469 ], [ -78.591784, 38.226663 ], [ -78.593427, 38.226769 ], [ -78.593473, 38.224658 ], [ -78.595282, 38.223756 ], [ -78.593488, 38.222674 ], [ -78.595497, 38.222679 ], [ -78.594444, 38.220629 ], [ -78.595193, 38.219978 ], [ -78.598768, 38.220118 ], [ -78.604597, 38.213024 ], [ -78.61129, 38.212133 ], [ -78.614604, 38.213164 ], [ -78.618613, 38.21248 ], [ -78.621861, 38.208804 ], [ -78.61251, 38.201308 ], [ -78.60988, 38.197234 ], [ -78.605029, 38.195462 ], [ -78.604208, 38.19409 ], [ -78.600289, 38.191818 ], [ -78.602017, 38.186281 ], [ -78.606207, 38.185463 ], [ -78.603047, 38.182575 ], [ -78.598964, 38.182849 ], [ -78.599679, 38.181326 ], [ -78.598632, 38.178129 ], [ -78.604995, 38.180282 ], [ -78.606265, 38.179504 ], [ -78.608421, 38.180325 ], [ -78.609785, 38.178257 ], [ -78.619565, 38.182627 ], [ -78.628486, 38.181466 ], [ -78.629646, 38.181079 ], [ -78.629111, 38.178923 ], [ -78.63061, 38.17868 ], [ -78.631135, 38.176864 ], [ -78.631917, 38.177051 ], [ -78.633135, 38.175026 ], [ -78.641377, 38.171715 ], [ -78.640042, 38.168621 ], [ -78.637654, 38.167433 ], [ -78.63692, 38.165876 ], [ -78.638265, 38.164895 ], [ -78.636759, 38.158749 ], [ -78.635744, 38.157776 ], [ -78.633998, 38.158204 ], [ -78.630709, 38.157499 ], [ -78.623552, 38.159159 ], [ -78.619521, 38.158451 ], [ -78.618102, 38.155541 ], [ -78.616205, 38.154695 ], [ -78.615742, 38.152764 ], [ -78.617741, 38.147152 ], [ -78.614553, 38.141416 ], [ -78.613394, 38.14143 ], [ -78.609729, 38.137837 ], [ -78.60931, 38.135846 ], [ -78.608126, 38.135447 ], [ -78.609782, 38.131193 ], [ -78.6096, 38.128251 ], [ -78.612463, 38.122355 ], [ -78.613809, 38.121988 ], [ -78.614553, 38.12009 ], [ -78.616123, 38.119229 ], [ -78.613292, 38.116001 ], [ -78.616316, 38.113766 ], [ -78.61995, 38.115437 ], [ -78.620699, 38.114577 ], [ -78.626648, 38.112727 ], [ -78.629259, 38.114152 ], [ -78.640323, 38.116937 ], [ -78.642847, 38.116782 ], [ -78.649254, 38.118853 ], [ -78.653538, 38.118681 ], [ -78.656307, 38.117505 ], [ -78.661473, 38.117963 ], [ -78.665483, 38.114023 ], [ -78.670194, 38.113396 ], [ -78.670829, 38.112417 ], [ -78.670135, 38.109098 ], [ -78.669024, 38.107148 ], [ -78.669094, 38.10521 ], [ -78.667774, 38.104051 ], [ -78.669214, 38.099889 ], [ -78.66545, 38.093029 ], [ -78.666236, 38.090366 ], [ -78.665501, 38.085545 ], [ -78.664612, 38.084408 ], [ -78.665231, 38.083315 ], [ -78.663036, 38.081393 ], [ -78.662551, 38.078658 ], [ -78.667338, 38.077001 ], [ -78.670936, 38.078396 ], [ -78.67145, 38.076985 ], [ -78.670268, 38.07694 ], [ -78.672855, 38.073591 ], [ -78.673379, 38.070389 ], [ -78.674323, 38.070572 ], [ -78.675693, 38.068167 ], [ -78.665576, 38.062854 ], [ -78.667067, 38.05949 ], [ -78.672496, 38.060583 ], [ -78.679477, 38.05697 ], [ -78.681477, 38.057349 ], [ -78.685353, 38.056235 ], [ -78.689075, 38.057432 ], [ -78.693298, 38.056735 ], [ -78.695743, 38.054708 ], [ -78.699068, 38.05398 ], [ -78.698286, 38.04871 ], [ -78.704666, 38.044785 ], [ -78.704914, 38.039924 ], [ -78.706226, 38.039309 ], [ -78.708872, 38.04027 ], [ -78.711436, 38.039188 ], [ -78.708697, 38.038471 ], [ -78.711609, 38.028479 ], [ -78.722021, 38.027261 ], [ -78.719612, 38.02318 ], [ -78.719207, 38.020131 ], [ -78.720104, 38.018214 ], [ -78.722103, 38.017653 ], [ -78.724477, 38.017998 ], [ -78.727864, 38.016849 ], [ -78.729275, 38.019902 ], [ -78.734662, 38.021317 ], [ -78.736652, 38.024096 ], [ -78.739596, 38.023537 ], [ -78.741412, 38.024219 ], [ -78.744103, 38.029204 ], [ -78.742789, 38.030239 ], [ -78.744711, 38.03356 ], [ -78.746777, 38.033391 ], [ -78.748478, 38.036731 ], [ -78.748291, 38.038954 ], [ -78.743345, 38.03787 ], [ -78.739985, 38.038124 ], [ -78.738389, 38.039547 ], [ -78.732611, 38.040437 ], [ -78.735378, 38.041026 ], [ -78.731202, 38.041897 ], [ -78.72769, 38.043669 ], [ -78.732293, 38.04697 ], [ -78.740018, 38.047115 ], [ -78.74606, 38.045943 ], [ -78.748256, 38.049924 ], [ -78.756336, 38.053875 ], [ -78.757214, 38.052597 ], [ -78.758523, 38.053567 ], [ -78.767701, 38.054653 ], [ -78.770025, 38.054297 ], [ -78.770903, 38.05527 ], [ -78.768252, 38.057576 ], [ -78.765402, 38.057999 ], [ -78.763231, 38.060743 ], [ -78.758522, 38.062461 ], [ -78.760884, 38.063866 ], [ -78.762851, 38.063889 ], [ -78.762873, 38.065349 ], [ -78.764489, 38.066188 ], [ -78.76672, 38.063704 ], [ -78.768241, 38.063978 ], [ -78.770265, 38.062918 ], [ -78.771792, 38.063734 ], [ -78.770616, 38.065097 ], [ -78.771851, 38.065793 ], [ -78.771498, 38.068045 ], [ -78.773217, 38.069219 ], [ -78.775465, 38.069582 ], [ -78.778468, 38.071633 ], [ -78.781602, 38.071378 ], [ -78.783973, 38.073293 ], [ -78.785686, 38.072842 ], [ -78.788785, 38.073828 ], [ -78.791733, 38.072978 ], [ -78.793029, 38.07398 ], [ -78.792841, 38.076009 ], [ -78.793927, 38.077511 ] ] ] } },
{ "type": "Feature", "properties": { "zip": "22902", "zori": 2115.0, "zori_yoy": 2.6 }, "geometry": { "type": "Polygon", "coordinates": [ [ [ -78.575789, 37.882279 ], [ -78.571219, 37.886637 ], [ -78.571695, 37.887591 ], [ -78.564471, 37.895689 ], [ -78.558821, 37.89969 ], [ -78.553786, 37.901976 ], [ -78.54748, 37.901453 ], [ -78.542981, 37.907571 ], [ -78.544237, 37.910551 ], [ -78.546205, 37.912193 ], [ -78.549996, 37.912957 ], [ -78.551105, 37.915264 ], [ -78.55116, 37.917306 ], [ -78.548796, 37.920947 ], [ -78.548608, 37.92249 ], [ -78.551166, 37.9245 ], [ -78.552857, 37.923731 ], [ -78.554465, 37.927559 ], [ -78.556919, 37.927361 ], [ -78.556552, 37.928432 ], [ -78.552413, 37.930513 ], [ -78.551242, 37.932333 ], [ -78.555039, 37.933688 ], [ -78.5524, 37.936989 ], [ -78.552486, 37.938965 ], [ -78.549958, 37.942921 ], [ -78.547413, 37.945986 ], [ -78.543498, 37.948223 ], [ -78.541507, 37.948177 ], [ -78.5441, 37.950779 ], [ -78.546375, 37.951427 ], [ -78.546154, 37.95491 ], [ -78.541347, 37.955776 ], [ -78.540977, 37.960477 ], [ -78.5385, 37.963689 ], [ -78.537951, 37.966407 ], [ -78.53623, 37.969146 ], [ -78.533566, 37.970387 ], [ -78.537748, 37.973521 ], [ -78.533351, 37.975065 ], [ -78.531169, 37.978864 ], [ -78.529248, 37.977749 ], [ -78.525618, 37.980955 ], [ -78.524277, 37.983919 ], [ -78.5249, 37.986517 ], [ -78.522911, 37.994187 ], [ -78.525957, 37.994573 ], [ -78.528462, 37.993344 ], [ -78.529891, 37.99428 ], [ -78.528531, 37.995796 ], [ -78.529161, 37.997882 ], [ -78.525938, 38.002312 ], [ -78.522473, 38.005442 ], [ -78.520924, 38.006397 ], [ -78.520011, 38.0053 ], [ -78.517625, 38.006672 ], [ -78.516477, 38.00813 ], [ -78.519782, 38.00901 ], [ -78.51861, 38.010678 ], [ -78.51016, 38.009774 ], [ -78.508473, 38.011378 ], [ -78.505599, 38.010378 ], [ -78.506142, 38.010863 ], [ -78.504158, 38.011083 ], [ -78.503329, 38.012675 ], [ -78.50005, 38.014345 ], [ -78.496802, 38.017727 ], [ -78.497279, 38.018456 ], [ -78.49521, 38.02084 ], [ -78.494559, 38.02054 ], [ -78.489123, 38.026025 ], [ -78.489909, 38.026571 ], [ -78.486049, 38.02869 ], [ -78.483897, 38.033564 ], [ -78.48504, 38.034428 ], [ -78.474844, 38.04283 ], [ -78.469315, 38.03909 ], [ -78.465847, 38.038348 ], [ -78.458535, 38.034559 ], [ -78.45991, 38.03318 ], [ -78.460959, 38.028519 ], [ -78.458684, 38.027561 ], [ -78.456268, 38.029505 ], [ -78.454123, 38.029577 ], [ -78.452213, 38.027733 ], [ -78.454668, 38.021604 ], [ -78.454296, 38.020574 ], [ -78.450971, 38.018073 ], [ -78.448402, 38.017349 ], [ -78.447411, 38.015706 ], [ -78.439139, 38.013526 ], [ -78.428395, 38.013262 ], [ -78.425945, 38.009837 ], [ -78.420298, 38.007716 ], [ -78.416742, 38.008336 ], [ -78.414856, 38.009913 ], [ -78.411623, 38.010999 ], [ -78.403328, 38.011373 ], [ -78.401325, 38.010664 ], [ -78.399338, 38.004694 ], [ -78.396967, 38.001557 ], [ -78.396656, 37.999044 ], [ -78.393952, 37.993967 ], [ -78.390094, 37.992316 ], [ -78.388958, 37.989464 ], [ -78.390972, 37.986743 ], [ -78.388562, 37.98258 ], [ -78.383504, 37.979701 ], [ -78.377577, 37.974808 ], [ -78.373209, 37.973092 ], [ -78.364118, 37.965431 ], [ -78.363957, 37.96374 ], [ -78.362527, 37.96172 ], [ -78.371151, 37.957148 ], [ -78.37226, 37.956187 ], [ -78.372453, 37.953985 ], [ -78.368228, 37.95201 ], [ -78.35776, 37.957236 ], [ -78.354265, 37.957369 ], [ -78.351083, 37.955899 ], [ -78.366568, 37.938288 ], [ -78.359209, 37.927501 ], [ -78.358876, 37.921773 ], [ -78.357837, 37.921513 ], [ -78.358274, 37.919966 ], [ -78.360155, 37.918808 ], [ -78.368422, 37.919085 ], [ -78.37608, 37.921928 ], [ -78.378236, 37.92504 ], [ -78.388598, 37.913294 ], [ -78.390967, 37.915715 ], [ -78.391412, 37.917412 ], [ -78.393376, 37.918374 ], [ -78.394532, 37.920244 ], [ -78.396458, 37.920437 ], [ -78.399769, 37.918685 ], [ -78.402783, 37.915995 ], [ -78.403609, 37.914282 ], [ -78.409036, 37.91175 ], [ -78.412097, 37.914616 ], [ -78.415621, 37.915787 ], [ -78.4179, 37.918884 ], [ -78.422454, 37.921639 ], [ -78.424097, 37.921698 ], [ -78.42525, 37.923535 ], [ -78.427717, 37.923883 ], [ -78.429537, 37.927848 ], [ -78.422006, 37.935265 ], [ -78.419871, 37.93387 ], [ -78.416946, 37.933396 ], [ -78.415734, 37.934772 ], [ -78.4159, 37.936491 ], [ -78.412854, 37.94376 ], [ -78.414468, 37.945985 ], [ -78.416673, 37.94643 ], [ -78.418663, 37.945014 ], [ -78.418754, 37.94369 ], [ -78.420724, 37.941978 ], [ -78.426527, 37.938843 ], [ -78.430944, 37.94037 ], [ -78.433994, 37.944302 ], [ -78.435707, 37.945186 ], [ -78.437232, 37.947964 ], [ -78.44219, 37.951885 ], [ -78.445207, 37.958436 ], [ -78.449271, 37.961494 ], [ -78.453571, 37.960577 ], [ -78.455173, 37.961148 ], [ -78.458232, 37.963871 ], [ -78.459954, 37.968659 ], [ -78.461051, 37.96549 ], [ -78.467336, 37.958838 ], [ -78.481635, 37.947599 ], [ -78.488832, 37.944009 ], [ -78.491452, 37.945274 ], [ -78.492913, 37.944935 ], [ -78.488666, 37.942711 ], [ -78.484528, 37.946079 ], [ -78.481314, 37.945258 ], [ -78.479615, 37.941731 ], [ -78.478054, 37.941171 ], [ -78.481705, 37.937967 ], [ -78.47543, 37.934691 ], [ -78.478131, 37.931356 ], [ -78.476295, 37.930087 ], [ -78.477218, 37.928229 ], [ -78.480046, 37.928223 ], [ -78.476696, 37.925491 ], [ -78.478383, 37.924933 ], [ -78.480417, 37.925395 ], [ -78.483595, 37.923989 ], [ -78.479028, 37.91695 ], [ -78.479367, 37.915616 ], [ -78.486964, 37.909696 ], [ -78.484675, 37.908927 ], [ -78.488764, 37.905614 ], [ -78.488401, 37.904388 ], [ -78.491069, 37.901644 ], [ -78.495164, 37.899671 ], [ -78.476544, 37.885174 ], [ -78.478407, 37.884564 ], [ -78.479466, 37.882186 ], [ -78.482617, 37.881109 ], [ -78.482984, 37.879412 ], [ -78.48796, 37.87185 ], [ -78.4878, 37.870253 ], [ -78.490779, 37.870817 ], [ -78.492407, 37.870289 ], [ -78.504152, 37.872964 ], [ -78.509309, 37.876506 ], [ -78.509758, 37.878593 ], [ -78.516242, 37.878821 ], [ -78.521515, 37.878048 ], [ -78.527838, 37.882701 ], [ -78.530336, 37.888852 ], [ -78.538054, 37.89328 ], [ -78.545095, 37.889542 ], [ -78.54486, 37.887071 ], [ -78.548865, 37.884882 ], [ -78.552864, 37.872943 ], [ -78.556307, 37.868605 ], [ -78.555546, 37.864829 ], [ -78.558119, 37.865746 ], [ -78.568936, 37.875363 ], [ -78.57559, 37.879242 ], [ -78.574354, 37.880301 ], [ -78.575801, 37.881022 ], [ -78.575789, 37.882279 ] ] ] } },
{ "type": "Feature", "properties": { "zip": "22911", "zori": 2302.0, "zori_yoy": 2.5 }, "geometry": { "type": "Polygon", "coordinates": [ [ [ -78.461416, 38.101116 ], [ -78.447954, 38.120779 ], [ -78.445128, 38.123598 ], [ -78.446713, 38.125889 ], [ -78.445447, 38.127686 ], [ -78.447934, 38.128974 ], [ -78.447551, 38.130294 ], [ -78.448984, 38.136062 ], [ -78.450688, 38.13397 ], [ -78.448867, 38.131924 ], [ -78.451733, 38.132233 ], [ -78.45342, 38.129953 ], [ -78.456821, 38.127691 ], [ -78.45988, 38.12779 ], [ -78.459318, 38.131363 ], [ -78.456647, 38.136811 ], [ -78.460116, 38.138613 ], [ -78.451575, 38.154482 ], [ -78.447178, 38.152979 ], [ -78.447839, 38.159203 ], [ -78.446483, 38.162651 ], [ -78.442193, 38.163145 ], [ -78.439925, 38.161828 ], [ -78.439752, 38.160603 ], [ -78.437067, 38.162124 ], [ -78.436205, 38.163585 ], [ -78.434285, 38.162734 ], [ -78.432415, 38.164156 ], [ -78.430836, 38.163991 ], [ -78.429408, 38.161753 ], [ -78.426839, 38.161807 ], [ -78.424672, 38.163353 ], [ -78.426694, 38.165403 ], [ -78.428662, 38.166378 ], [ -78.433054, 38.166832 ], [ -78.436241, 38.169363 ], [ -78.437587, 38.170974 ], [ -78.437564, 38.174833 ], [ -78.442346, 38.177871 ], [ -78.443101, 38.179795 ], [ -78.439751, 38.183465 ], [ -78.434335, 38.181863 ], [ -78.427398, 38.182991 ], [ -78.4214, 38.191255 ], [ -78.418506, 38.1923 ], [ -78.414709, 38.192374 ], [ -78.412547, 38.190772 ], [ -78.408384, 38.190642 ], [ -78.403978, 38.18644 ], [ -78.400918, 38.18523 ], [ -78.399336, 38.184653 ], [ -78.396198, 38.185343 ], [ -78.396399, 38.179264 ], [ -78.395235, 38.171479 ], [ -78.379702, 38.170708 ], [ -78.379333, 38.1723 ], [ -78.373683, 38.171523 ], [ -78.373805, 38.167133 ], [ -78.375077, 38.166152 ], [ -78.374317, 38.164602 ], [ -78.375998, 38.165175 ], [ -78.379699, 38.156783 ], [ -78.382463, 38.153199 ], [ -78.380135, 38.151035 ], [ -78.38121, 38.146006 ], [ -78.378383, 38.142359 ], [ -78.382361, 38.140769 ], [ -78.382466, 38.139923 ], [ -78.384419, 38.139886 ], [ -78.385359, 38.138459 ], [ -78.3849, 38.137871 ], [ -78.380884, 38.136217 ], [ -78.375447, 38.137356 ], [ -78.371574, 38.133896 ], [ -78.370448, 38.133903 ], [ -78.367917, 38.131883 ], [ -78.359934, 38.137345 ], [ -78.35534, 38.134129 ], [ -78.356023, 38.132459 ], [ -78.359157, 38.129773 ], [ -78.361409, 38.129932 ], [ -78.364341, 38.128146 ], [ -78.365322, 38.129018 ], [ -78.365431, 38.126366 ], [ -78.363462, 38.122091 ], [ -78.364051, 38.120021 ], [ -78.36917, 38.116278 ], [ -78.371661, 38.113059 ], [ -78.370681, 38.112747 ], [ -78.370099, 38.111197 ], [ -78.367221, 38.11116 ], [ -78.367895, 38.109977 ], [ -78.372229, 38.107532 ], [ -78.374041, 38.104478 ], [ -78.378481, 38.102379 ], [ -78.368354, 38.100522 ], [ -78.367019, 38.099452 ], [ -78.365623, 38.099727 ], [ -78.361522, 38.096495 ], [ -78.357187, 38.095441 ], [ -78.356427, 38.096872 ], [ -78.351203, 38.099231 ], [ -78.348736, 38.097442 ], [ -78.343556, 38.095711 ], [ -78.34072, 38.093405 ], [ -78.332881, 38.090297 ], [ -78.332157, 38.08617 ], [ -78.332545, 38.083719 ], [ -78.335543, 38.08363 ], [ -78.336901, 38.081888 ], [ -78.336682, 38.08584 ], [ -78.343972, 38.083601 ], [ -78.342703, 38.075987 ], [ -78.343734, 38.071439 ], [ -78.346898, 38.068629 ], [ -78.349659, 38.067421 ], [ -78.350262, 38.064665 ], [ -78.352579, 38.062001 ], [ -78.358684, 38.05948 ], [ -78.370812, 38.056177 ], [ -78.375346, 38.052878 ], [ -78.375821, 38.05107 ], [ -78.37193, 38.04286 ], [ -78.373357, 38.039592 ], [ -78.370172, 38.035673 ], [ -78.384797, 38.024422 ], [ -78.39742, 38.024752 ], [ -78.398059, 38.023521 ], [ -78.400176, 38.022874 ], [ -78.402456, 38.020583 ], [ -78.402107, 38.019317 ], [ -78.399427, 38.017863 ], [ -78.393125, 38.019014 ], [ -78.391582, 38.020697 ], [ -78.390187, 38.020418 ], [ -78.389066, 38.018229 ], [ -78.389162, 38.015594 ], [ -78.390894, 38.014857 ], [ -78.388813, 38.013123 ], [ -78.391549, 38.01148 ], [ -78.392064, 38.009292 ], [ -78.395478, 38.009497 ], [ -78.395139, 38.006982 ], [ -78.396745, 38.001459 ], [ -78.399338, 38.004694 ], [ -78.401325, 38.010664 ], [ -78.403328, 38.011373 ], [ -78.411623, 38.010999 ], [ -78.414856, 38.009913 ], [ -78.416742, 38.008336 ], [ -78.420298, 38.007716 ], [ -78.425945, 38.009837 ], [ -78.428395, 38.013262 ], [ -78.439139, 38.013526 ], [ -78.447411, 38.015706 ], [ -78.448402, 38.017349 ], [ -78.450971, 38.018073 ], [ -78.454296, 38.020574 ], [ -78.454668, 38.021604 ], [ -78.452213, 38.027733 ], [ -78.454123, 38.029577 ], [ -78.456268, 38.029505 ], [ -78.458684, 38.027561 ], [ -78.460959, 38.028519 ], [ -78.45991, 38.03318 ], [ -78.455013, 38.037399 ], [ -78.454092, 38.039243 ], [ -78.454643, 38.045367 ], [ -78.449215, 38.045306 ], [ -78.447421, 38.045925 ], [ -78.446686, 38.047904 ], [ -78.4463, 38.049421 ], [ -78.447652, 38.056589 ], [ -78.451571, 38.060819 ], [ -78.451366, 38.06206 ], [ -78.447738, 38.065455 ], [ -78.443317, 38.067283 ], [ -78.44276, 38.07018 ], [ -78.439508, 38.072304 ], [ -78.43976, 38.073884 ], [ -78.44683, 38.078357 ], [ -78.446798, 38.08024 ], [ -78.444962, 38.083968 ], [ -78.441836, 38.086638 ], [ -78.443616, 38.088873 ], [ -78.443507, 38.092725 ], [ -78.444827, 38.094441 ], [ -78.445378, 38.097207 ], [ -78.447302, 38.098938 ], [ -78.449122, 38.099165 ], [ -78.452062, 38.097267 ], [ -78.453935, 38.097466 ], [ -78.461416, 38.101116 ] ] ] } }
]
}
